NORAD_CAT_ID,OBJECT_NAME,OBJECT_TYPE,EPOCH,MEAN_MOTION,ECCENTRICITY,INCLINATION,RA_OF_ASC_NODE,ARG_OF_PERICENTER,MEAN_ANOMALY,BSTAR,MEAN_MOTION_DOT,MEAN_MOTION_DDOT,TLE_LINE0,TLE_LINE1,TLE_LINE2,SEMIMAJOR_AXIS,PERIOD,APOGEE,PERIGEE,DECAYED
52987.0,STARLINK-4259,PAYLOAD,2023-11-14 15:59:53,15.08840202,0.0001446,53.2178,302.0641,89.3219,270.7939,3.2722e-05,2.33e-06,0.0,0 STARLINK-4259,1 52987U 22076B   23318.66659151  .00000233  00000-0  32722-4 0  9992,2 52987  53.2178 302.0641 0001446  89.3219 270.7939 15.08840202 74987,6917.88,95.438,540.745,538.744,0.0
52987.0,STARLINK-4259,PAYLOAD,2023-11-15 03:07:36,15.08830282,0.0001599,53.2185,299.9839,94.2383,265.8791,-0.00013094,-2.371e-05,0.0,0 STARLINK-4259,1 52987U 22076B   23319.13027876 -.00002371  00000-0 -13094-3 0  9995,2 52987  53.2185 299.9839 0001599  94.2383 265.8791 15.08830282 75523,6917.91,95.438,540.881,538.669,0.0
52987.0,STARLINK-4259,PAYLOAD,2023-11-15 06:18:22,15.08838437,0.0001665,53.2181,299.3901,91.3137,268.8046,-4.0615e-05,-9.34e-06,0.0,0 STARLINK-4259,1 52987U 22076B   23319.26276089 -.00000934  00000-0 -40615-4 0  9994,2 52987  53.2181 299.3901 0001665  91.3137 268.8046 15.08838437 75078,6917.885,95.438,540.902,538.598,0.0
52987.0,STARLINK-4259,PAYLOAD,2023-11-15 15:50:41,15.08842527,0.0001693,53.2181,297.6059,91.0017,269.1169,-2.2045e-05,-6.39e-06,0.0,0 STARLINK-4259,1 52987U 22076B   23319.66019794 -.00000639  00000-0 -22045-4 0  9995,2 52987  53.2181 297.6059 0001693  91.0017 269.1169 15.08842527 75602,6917.873,95.437,540.909,538.566,0.0
52987.0,STARLINK-4259,PAYLOAD,2023-11-15 22:12:13,15.08837802,0.0001702,53.2181,296.4164,97.227,262.8916,0.00010144,1.327e-05,0.0,0 STARLINK-4259,1 52987U 22076B   23319.92515938  .00001327  00000-0  10144-3 0  9994,2 52987  53.2181 296.4164 0001702  97.2270 262.8916 15.08837802 75178,6917.887,95.438,540.93,538.575,0.0
52987.0,STARLINK-4259,PAYLOAD,2023-11-16 06:09:09,15.08841301,0.0001667,53.2182,294.9296,97.8969,262.2212,0.00010459,1.377e-05,0.0,0 STARLINK-4259,1 52987U 22076B   23320.25635758  .00001377  00000-0  10459-3 0  9999,2 52987  53.2182 294.9296 0001667  97.8969 262.2212 15.08841301 75227,6917.876,95.437,540.895,538.588,0.0
52987.0,STARLINK-4259,PAYLOAD,2023-11-16 22:03:01,15.08834394,0.0001706,53.2179,291.9554,89.0706,271.0481,0.0001426,1.982e-05,0.0,0 STARLINK-4259,1 52987U 22076B   23320.91876256  .00001982  00000-0  14260-3 0  9998,2 52987  53.2179 291.9554 0001706  89.0706 271.0481 15.08834394 75324,6917.898,95.438,540.943,538.582,0.0
52987.0,STARLINK-4259,PAYLOAD,2023-11-17 04:24:33,15.08824338,0.000154,53.2169,290.7661,94.9766,265.1402,0.00038831,5.895e-05,0.0,0 STARLINK-4259,1 52987U 22076B   23321.18372661  .00005895  00000-0  38831-3 0  9996,2 52987  53.2169 290.7661 0001540  94.9766 265.1402 15.08824338 75836,6917.928,95.439,540.859,538.728,0.0
52987.0,STARLINK-4259,PAYLOAD,2023-11-17 15:32:15,15.08842042,0.0001519,53.2171,288.6849,90.8662,269.2504,0.00011709,1.576e-05,0.0,0 STARLINK-4259,1 52987U 22076B   23321.64739861  .00001576  00000-0  11709-3 0  9993,2 52987  53.2171 288.6849 0001519  90.8662 269.2504 15.08842042 75907,6917.874,95.437,540.79,538.688,0.0
52987.0,STARLINK-4259,PAYLOAD,2023-11-17 21:53:48,15.08841414,0.000177,53.2171,287.4962,88.2613,271.8582,3.9174e-05,3.35e-06,0.0,0 STARLINK-4259,1 52987U 22076B   23321.91236151  .00000335  00000-0  39174-4 0  9996,2 52987  53.2171 287.4962 0001770  88.2613 271.8582 15.08841414 75475,6917.876,95.437,540.966,538.517,0.0
52987.0,STARLINK-4259,PAYLOAD,2023-11-18 04:15:20,15.08843793,0.0001673,53.2175,286.3054,94.9199,265.1984,0.00010145,1.327e-05,0.0,0 STARLINK-4259,1 52987U 22076B   23322.17731769  .00001327  00000-0  10145-3 0  9998,2 52987  53.2175 286.3054 0001673  94.9199 265.1984 15.08843793 75513,6917.869,95.437,540.891,538.576,0.0
52987.0,STARLINK-4259,PAYLOAD,2023-11-18 15:23:02,15.08840274,0.0001611,53.2179,284.224,94.5547,265.5629,5.9611e-05,6.61e-06,0.0,0 STARLINK-4259,1 52987U 22076B   23322.64100079  .00000661  00000-0  59611-4 0  9996,2 52987  53.2179 284.2240 0001611  94.5547 265.5629 15.08840274 76057,6917.88,95.438,540.859,538.63,0.0
52987.0,STARLINK-4259,PAYLOAD,2023-11-18 21:44:34,15.08836302,0.000159,53.2175,283.0341,96.4382,263.6791,0.00014287,1.986e-05,0.0,0 STARLINK-4259,1 52987U 22076B   23322.90596023  .00001986  00000-0  14287-3 0  9993,2 52987  53.2175 283.0341 0001590  96.4382 263.6791 15.08836302 75624,6917.892,95.438,540.857,538.657,0.0
52987.0,STARLINK-4259,PAYLOAD,2023-11-19 07:16:53,15.0884703,0.0001593,53.2178,281.2504,97.7824,262.3349,0.00010204,1.337e-05,0.0,0 STARLINK-4259,1 52987U 22076B   23323.30339428  .00001337  00000-0  10204-3 0  9997,2 52987  53.2178 281.2504 0001593  97.7824 262.3349 15.08847030 76150,6917.859,95.437,540.826,538.622,0.0
52987.0,STARLINK-4259,PAYLOAD,2023-11-19 21:35:23,15.08818061,0.0001508,53.2177,278.5741,92.3912,267.7253,-0.00011636,-2.138e-05,0.0,0 STARLINK-4259,1 52987U 22076B   23323.89958271 -.00002138  00000-0 -11636-3 0  9996,2 52987  53.2177 278.5741 0001508  92.3912 267.7253 15.08818061 75778,6917.947,95.439,540.856,538.769,0.0
52987.0,STARLINK-4259,PAYLOAD,2023-11-20 03:56:55,15.08828843,0.0001505,53.2178,277.3848,92.2963,267.8202,-3.8454e-05,-9e-06,0.0,0 STARLINK-4259,1 52987U 22076B   23324.16453668 -.00000900  00000-0 -38454-4 0  9990,2 52987  53.2178 277.3848 0001505  92.2963 267.8202 15.08828843 76287,6917.914,95.438,540.821,538.738,0.0
52987.0,STARLINK-4259,PAYLOAD,2023-11-20 13:29:14,15.08840527,0.0001542,53.2182,275.6008,93.715,266.4019,9.3204e-05,1.196e-05,0.0,0 STARLINK-4259,1 52987U 22076B   23324.56196897  .00001196  00000-0  93204-4 0  9992,2 52987  53.2182 275.6008 0001542  93.7150 266.4019 15.08840527 75874,6917.879,95.438,540.811,538.677,0.0
52987.0,STARLINK-4259,PAYLOAD,2023-11-20 21:26:09,15.08848828,0.0001484,53.218,274.1125,93.483,266.6332,0.00017923,2.566e-05,0.0,0 STARLINK-4259,1 52987U 22076B   23324.89316246  .00002566  00000-0  17923-3 0  9995,2 52987  53.2180 274.1125 0001484  93.4830 266.6332 15.08848828 75921,6917.853,95.437,540.745,538.692,0.0
52987.0,STARLINK-4259,PAYLOAD,2023-11-21 03:47:42,15.08874929,0.0001529,53.2172,272.9257,91.7653,268.3514,0.001381,0.0002178,0.0,0 STARLINK-4259,1 52987U 22076B   23325.15812611  .00021780  00000-0  13810-2 0  9991,2 52987  53.2172 272.9257 0001529  91.7653 268.3514 15.08874929 76437,6917.774,95.435,540.696,538.581,0.0
52987.0,STARLINK-4259,PAYLOAD,2023-11-21 06:58:27,15.0888579,0.0001492,53.2169,272.331,91.1018,269.0145,0.0014939,0.00023597,0.0,0 STARLINK-4259,1 52987U 22076B   23325.29060173  .00023597  00000-0  14939-2 0  9995,2 52987  53.2169 272.3310 0001492  91.1018 269.0145 15.08885790 75980,6917.74,95.435,540.638,538.573,0.0
52987.0,STARLINK-4259,PAYLOAD,2023-11-21 19:41:33,15.08873138,0.0002298,53.216,269.9503,87.2606,272.8649,0.0015538,0.0002455,0.0,0 STARLINK-4259,1 52987U 22076B   23325.82052219  .00024550  00000-0  15538-2 0  9992,2 52987  53.2160 269.9503 0002298  87.2606 272.8649 15.08873138 76065,6917.779,95.435,541.234,538.054,0.0
52987.0,STARLINK-4259,PAYLOAD,2023-11-22 03:38:28,15.08866946,0.0001233,53.2159,268.4625,101.0954,259.0177,0.00073943,0.00011508,0.0,0 STARLINK-4259,1 52987U 22076B   23326.15171703  .00011508  00000-0  73943-3 0  9993,2 52987  53.2159 268.4625 0001233 101.0954 259.0177 15.08866946 76580,6917.798,95.436,540.516,538.81,0.0
52987.0,STARLINK-4259,PAYLOAD,2023-11-22 06:49:14,15.08874237,0.0001248,53.2161,267.8686,108.192,251.9208,0.0010964,0.00017221,0.0,0 STARLINK-4259,1 52987U 22076B   23326.28419437  .00017221  00000-0  10964-2 0  9997,2 52987  53.2161 267.8686 0001248 108.1920 251.9208 15.08874237 76139,6917.776,95.435,540.504,538.777,0.0
52987.0,STARLINK-4259,PAYLOAD,2023-11-23 03:29:15,15.0884644,0.000141,53.2161,264.0038,79.5643,280.5508,0.00045849,7.018e-05,0.0,0 STARLINK-4259,1 52987U 22076B   23327.14532068  .00007018  00000-0  45849-3 0  9993,2 52987  53.2161 264.0038 0001410  79.5643 280.5508 15.08846440 76735,6917.861,95.437,540.701,538.75,0.0
52987.0,STARLINK-4259,PAYLOAD,2023-11-23 05:04:38,15.08852154,0.0001236,53.2159,263.7064,97.478,262.6353,0.00083168,0.00012977,0.0,0 STARLINK-4259,1 52987U 22076B   23327.21155901  .00012977  00000-0  83168-3 0  9994,2 52987  53.2159 263.7064 0001236  97.4780 262.6353 15.08852154 76271,6917.843,95.437,540.563,538.853,0.0
52987.0,STARLINK-4259,PAYLOAD,2023-11-24 03:20:03,15.08832722,0.0001485,53.2169,259.5397,87.1217,272.9945,0.00047191,7.229e-05,0.0,0 STARLINK-4259,1 52987U 22076B   23328.13892768  .00007229  00000-0  47191-3 0  9995,2 52987  53.2169 259.5397 0001485  87.1217 272.9945 15.08832722 76888,6917.903,95.438,540.795,538.74,0.0
52987.0,STARLINK-4259,PAYLOAD,2023-11-24 19:13:55,15.08838963,0.0001715,53.2174,256.5736,71.7235,288.3944,0.00029254,4.371e-05,0.0,0 STARLINK-4259,1 52987U 22076B   23328.80133195  .00004371  00000-0  29254-3 0  9996,2 52987  53.2174 256.5736 0001715  71.7235 288.3944 15.08838963 76516,6917.884,95.438,540.935,538.562,0.0
52987.0,STARLINK-4259,PAYLOAD,2023-11-25 04:46:13,15.08853595,0.0001482,53.2168,254.7842,91.4657,268.6505,0.00061185,9.467e-05,0.0,0 STARLINK-4259,1 52987U 22076B   23329.19876533  .00009467  00000-0  61185-3 0  9999,2 52987  53.2168 254.7842 0001482  91.4657 268.6505 15.08853595 76573,6917.839,95.437,540.729,538.679,0.0
52987.0,STARLINK-4259,PAYLOAD,2023-11-25 22:15:27,15.08860104,0.0001871,53.2188,251.5114,114.1077,246.0111,0.00051741,7.961e-05,0.0,0 STARLINK-4259,1 52987U 22076B   23329.92740146  .00007961  00000-0  51741-3 0  9994,2 52987  53.2188 251.5114 0001871 114.1077 246.0111 15.08860104 76682,6917.819,95.436,540.978,538.39,0.0
52987.0,STARLINK-4259,PAYLOAD,2023-11-26 01:26:13,15.08879093,0.0001726,53.218,250.9236,105.2936,254.8247,0.00091584,0.00014333,0.0,0 STARLINK-4259,1 52987U 22076B   23330.05987574  .00014333  00000-0  91584-3 0  9998,2 52987  53.2180 250.9236 0001726 105.2936 254.8247 15.08879093 76703,6917.761,95.435,540.82,538.432,0.0
